{
  "type": "FeatureCollection",
  "features": [
    {
      "type": "Feature",
      "properties": {
        "norad_id": 31566,
        "name": "FENGYUN 1C DEB",
        "group": "fengyun-1c-debris",
        "lat": -51.99732721502902,
        "lon": 54.870839599270894,
        "alt_km": 765.0662524111276,
        "timestamp": "2025-12-10T09:57:44.982425+00:00",
        "meta_object_name": "FENGYUN 1C DEB",
        "meta_object_id": "1999-025BZH",
        "meta_epoch": "2025-12-09T02:36:08.060832",
        "meta_mean_motion": 14.37324478,
        "meta_eccentricity": 0.00229586,
        "meta_inclination": 98.9487,
        "meta_ra_of_asc_node": 41.8781,
        "meta_arg_of_pericenter": 7.2619,
        "meta_mean_anomaly": 22.6935,
        "meta_ephemeris_type": 0,
        "meta_classification_type": "U",
        "meta_norad_cat_id": 31566,
        "meta_element_set_no": 999,
        "meta_rev_at_epoch": 96339,
        "meta_bstar": 0.0023850189,
        "meta_mean_motion_dot": 7.097e-05,
        "meta_mean_motion_ddot": 0,
        "tle_line1": "1 31566U 99025BZH 25343.10842663  .00007097  00000+0  23850-2 0  9995",
        "tle_line2": "2 31566  98.9487  41.8781 0022958   7.2619  22.6935 14.37324478963398"
      },
      "geometry": {
        "type": "Point",
        "coordinates": [
          54.870839599270894,
          -51.99732721502902
        ]
      }
    },
    {
      "type": "Feature",
      "properties": {
        "norad_id": 31567,
        "name": "FENGYUN 1C DEB",
        "group": "fengyun-1c-debris",
        "lat": -61.69355119541278,
        "lon": 6.421122310050152,
        "alt_km": 876.5335518687225,
        "timestamp": "2025-12-10T09:57:44.982435+00:00",
        "meta_object_name": "FENGYUN 1C DEB",
        "meta_object_id": "1999-025BZJ",
        "meta_epoch": "2025-12-09T01:44:46.290336",
        "meta_mean_motion": 13.92831343,
        "meta_eccentricity": 0.01872519,
        "meta_inclination": 102.3172,
        "meta_ra_of_asc_node": 208.5734,
        "meta_arg_of_pericenter": 317.4185,
        "meta_mean_anomaly": 41.2572,
        "meta_ephemeris_type": 0,
        "meta_classification_type": "U",
        "meta_norad_cat_id": 31567,
        "meta_element_set_no": 999,
        "meta_rev_at_epoch": 67358,
        "meta_bstar": 0.0038918062,
        "meta_mean_motion_dot": 5.758e-05,
        "meta_mean_motion_ddot": 0,
        "tle_line1": "1 31567U 99025BZJ 25343.07275799  .00005758  00000+0  38918-2 0  9995",
        "tle_line2": "2 31567 102.3172 208.5734 0187251 317.4185  41.2572 13.92831343673589"
      },
      "geometry": {
        "type": "Point",
        "coordinates": [
          6.421122310050152,
          -61.69355119541278
        ]
      }
    },
    {
      "type": "Feature",
      "properties": {
        "norad_id": 31568,
        "name": "FENGYUN 1C DEB",
        "group": "fengyun-1c-debris",
        "lat": -25.628474765775465,
        "lon": -128.33342205568982,
        "alt_km": 965.9577410206857,
        "timestamp": "2025-12-10T09:57:44.982445+00:00",
        "meta_object_name": "FENGYUN 1C DEB",
        "meta_object_id": "1999-025BZK",
        "meta_epoch": "2025-12-09T10:08:03.416928",
        "meta_mean_motion": 14.0330509,
        "meta_eccentricity": 0.0122014,
        "meta_inclination": 102.0476,
        "meta_ra_of_asc_node": 224.4757,
        "meta_arg_of_pericenter": 128.5859,
        "meta_mean_anomaly": 232.6299,
        "meta_ephemeris_type": 0,
        "meta_classification_type": "U",
        "meta_norad_cat_id": 31568,
        "meta_element_set_no": 999,
        "meta_rev_at_epoch": 94533,
        "meta_bstar": 0.0032549417,
        "meta_mean_motion_dot": 5.364e-05,
        "meta_mean_motion_ddot": 0,
        "tle_line1": "1 31568U 99025BZK 25343.42226177  .00005364  00000+0  32549-2 0  9998",
        "tle_line2": "2 31568 102.0476 224.4757 0122014 128.5859 232.6299 14.03305090945336"
      },
      "geometry": {
        "type": "Point",
        "coordinates": [
          -128.33342205568982,
          -25.628474765775465
        ]
      }
    },
    {
      "type": "Feature",
      "properties": {
        "norad_id": 31569,
        "name": "FENGYUN 1C DEB",
        "group": "fengyun-1c-debris",
        "lat": -39.50996914983035,
        "lon": -49.86089357598862,
        "alt_km": 1025.8089192414382,
        "timestamp": "2025-12-10T09:57:44.982455+00:00",
        "meta_object_name": "FENGYUN 1C DEB",
        "meta_object_id": "1999-025BZL",
        "meta_epoch": "2025-11-30T05:24:01.468800",
        "meta_mean_motion": 13.95405103,
        "meta_eccentricity": 0.01728622,
        "meta_inclination": 102.6164,
        "meta_ra_of_asc_node": 126.885,
        "meta_arg_of_pericenter": 36.2337,
        "meta_mean_anomaly": 138.7821,
        "meta_ephemeris_type": 0,
        "meta_classification_type": "U",
        "meta_norad_cat_id": 31569,
        "meta_element_set_no": 999,
        "meta_rev_at_epoch": 93504,
        "meta_bstar": 0.0023090613,
        "meta_mean_motion_dot": 3.477e-05,
        "meta_mean_motion_ddot": 0,
        "tle_line1": "1 31569U 99025BZL 25334.22501700  .00003477  00000+0  23091-2 0  9990",
        "tle_line2": "2 31569 102.6164 126.8850 0172862  36.2337 138.7821 13.95405103935048"
      },
      "geometry": {
        "type": "Point",
        "coordinates": [
          -49.86089357598862,
          -39.50996914983035
        ]
      }
    },
    {
      "type": "Feature",
      "properties": {
        "norad_id": 31570,
        "name": "FENGYUN 1C DEB",
        "group": "fengyun-1c-debris",
        "lat": -33.52873318503612,
        "lon": -166.14499605688138,
        "alt_km": 706.8287212038695,
        "timestamp": "2025-12-10T09:57:44.982465+00:00",
        "meta_object_name": "FENGYUN 1C DEB",
        "meta_object_id": "1999-025BZM",
        "meta_epoch": "2025-12-08T08:05:21.380064",
        "meta_mean_motion": 14.25110084,
        "meta_eccentricity": 0.01541377,
        "meta_inclination": 102.5654,
        "meta_ra_of_asc_node": 19.3892,
        "meta_arg_of_pericenter": 234.4422,
        "meta_mean_anomaly": 124.229,
        "meta_ephemeris_type": 0,
        "meta_classification_type": "U",
        "meta_norad_cat_id": 31570,
        "meta_element_set_no": 999,
        "meta_rev_at_epoch": 63304,
        "meta_bstar": 0.0030419065,
        "meta_mean_motion_dot": 8.009e-05,
        "meta_mean_motion_ddot": 0,
        "tle_line1": "1 31570U 99025BZM 25342.33705301  .00008009  00000+0  30419-2 0  9994",
        "tle_line2": "2 31570 102.5654  19.3892 0154137 234.4422 124.2290 14.25110084633047"
      },
      "geometry": {
        "type": "Point",
        "coordinates": [
          -166.14499605688138,
          -33.52873318503612
        ]
      }
    },
    {
      "type": "Feature",
      "properties": {
        "norad_id": 31608,
        "name": "FENGYUN 1C DEB",
        "group": "fengyun-1c-debris",
        "lat": 12.705914042361318,
        "lon": -75.6626464045569,
        "alt_km": 665.1226360837736,
        "timestamp": "2025-12-10T09:57:44.982475+00:00",
        "meta_object_name": "FENGYUN 1C DEB",
        "meta_object_id": "1999-025BZN",
        "meta_epoch": "2025-12-04T14:13:29.603136",
        "meta_mean_motion": 14.85679772,
        "meta_eccentricity": 0.0146671,
        "meta_inclination": 98.3801,
        "meta_ra_of_asc_node": 96.302,
        "meta_arg_of_pericenter": 63.9077,
        "meta_mean_anomaly": 297.7147,
        "meta_ephemeris_type": 0,
        "meta_classification_type": "U",
        "meta_norad_cat_id": 31608,
        "meta_element_set_no": 999,
        "meta_rev_at_epoch": 98512,
        "meta_bstar": 0.0015593,
        "meta_mean_motion_dot": 0.00016394,
        "meta_mean_motion_ddot": 0,
        "tle_line1": "1 31608U 99025BZN 25338.59270374  .00016394  00000+0  15593-2 0  9998",
        "tle_line2": "2 31608  98.3801  96.3020 0146671  63.9077 297.7147 14.85679772985124"
      },
      "geometry": {
        "type": "Point",
        "coordinates": [
          -75.6626464045569,
          12.705914042361318
        ]
      }
    },
    {
      "type": "Feature",
      "properties": {
        "norad_id": 31609,
        "name": "FENGYUN 1C DEB",
        "group": "fengyun-1c-debris",
        "lat": -41.39105493839073,
        "lon": -175.36573131842295,
        "alt_km": 863.656157958957,
        "timestamp": "2025-12-10T09:57:44.982485+00:00",
        "meta_object_name": "FENGYUN 1C DEB",
        "meta_object_id": "1999-025BZP",
        "meta_epoch": "2025-12-07T01:19:25.751424",
        "meta_mean_motion": 14.156767,
        "meta_eccentricity": 0.0094908,
        "meta_inclination": 99.216,
        "meta_ra_of_asc_node": 9.388,
        "meta_arg_of_pericenter": 336.5905,
        "meta_mean_anomaly": 51.8314,
        "meta_ephemeris_type": 0,
        "meta_classification_type": "U",
        "meta_norad_cat_id": 31609,
        "meta_element_set_no": 999,
        "meta_rev_at_epoch": 66004,
        "meta_bstar": 0.0037519883,
        "meta_mean_motion_dot": 7.643e-05,
        "meta_mean_motion_ddot": 0,
        "tle_line1": "1 31609U 99025BZP 25341.05515916  .00007643  00000+0  37520-2 0  9999",
        "tle_line2": "2 31609  99.2160   9.3880 0094908 336.5905  51.8314 14.15676700660042"
      },
      "geometry": {
        "type": "Point",
        "coordinates": [
          -175.36573131842295,
          -41.39105493839073
        ]
      }
    }
  ]
}